ONEWEB-0549             
1 56051U 23043F   25353.84101459 -.00000037  00000+0 -12097-3 0  9992
2 56051  87.9224 279.7587 0001795  66.9160 293.2163 13.21826375134536
ONEWEB-0550             
1 56052U 23043G   25353.52504926  .00000119  00000+0  25727-3 0  9997
2 56052  87.9224 279.8168 0001832  79.9120 280.2220 13.21823031134496
ONEWEB-0551             
1 56053U 23043H   25353.35570846  .00000085  00000+0  19119-3 0  9993
2 56053  87.8997 295.1177 0001889  71.4975 288.6360 13.15549545132753
ONEWEB-0552             
1 56054U 23043J   25353.36872980  .00000110  00000+0  23362-3 0  9993
2 56054  87.9221 279.8566 0002016  70.6099 289.5253 13.21826969134474
ONEWEB-0553             
1 56055U 23043K   25353.82909135  .00000018  00000+0  14339-4 0  9990
2 56055  87.9050 264.4872 0001493  88.0537 272.0765 13.16595699135375
ONEWEB-0554             
1 56056U 23043L   25353.20845670  .00000172  00000+0  41750-3 0  9993
2 56056  87.9032 264.6244 0001878  80.9843 279.1501 13.16592226135277
ONEWEB-0555             
1 56057U 23043M   25353.17046007 -.00000025  00000+0 -98475-4 0  9993
2 56057  87.9048 264.6133 0001349  90.5734 269.5552 13.16595624135275
ONEWEB-0557             
1 56058U 23043N   25353.18469995  .00000001  00000+0 -30338-4 0  9997
2 56058  87.9044 264.6234 0002325 108.2938 251.8446 13.16591902135273
